{
"type": "FeatureCollection",
"name": "flanders_buffer15_wgs84",
"crs": { "type": "name", "properties": { "name": "urn:ogc:def:crs:OGC:1.3:CRS84" } },
"features": [
{ "type": "Feature", "properties": { "UIDN": 3.0, "OIDN": 1.0, "TERRID": 363, "NAAM": "Vlaams Gewest", "NISCODE": "02000", "NUTS1": "BE2", "LENGTE": 1115854.76, "OPPERVL": 13628604124.91 }, "geometry": { "type": "Polygon", "coordinates": [ [ [ 2.352752475269315, 51.030104771108022 ], [ 2.347861799555382, 51.036186083839588 ], [ 2.343269179083935, 51.042735600096151 ], [ 2.339233378873738, 51.049429439109161 ], [ 2.335765988632752, 51.05624877697521 ], [ 2.332877013208045, 51.063174428704521 ], [ 2.330574841856794, 51.070186901770619 ], [ 2.328866221891932, 51.077266450613116 ], [ 2.327756236806616, 51.084393131945689 ], [ 2.327248288970801, 51.091546860717308 ], [ 2.327344086981867, 51.098707466572591 ], [ 2.328043637739101, 51.10585475065421 ], [ 2.329345243299365, 51.11296854258827 ], [ 2.331245502558005, 51.120028757491824 ], [ 2.333739317785466, 51.127015452840944 ], [ 2.336819906035862, 51.13390888503627 ], [ 2.340478815429186, 51.140689565502825 ], [ 2.34470594629381, 51.147338316162426 ], [ 2.349489577140613, 51.153836324115048 ], [ 2.354816395424414, 51.160165195369736 ], [ 2.360671533032598, 51.166307007465534 ], [ 2.367038606424796, 51.172244360825324 ], [ 2.37389976133141, 51.17796042868946 ], [ 2.381235721902763, 51.183439005478128 ], [ 2.389025844184612, 51.188664553436183 ], [ 2.397248173780029, 51.193622247417871 ], [ 2.405879507542041, 51.198298017674951 ], [ 2.414895459126238, 51.202678590515589 ], [ 2.424270528217793, 51.206751526709041 ], [ 2.433978173233037, 51.210505257516445 ], [ 2.443990887282117, 51.213929118235178 ], [ 2.444049572273097, 51.213947930519318 ], [ 2.445852598655149, 51.214525278366352 ], [ 2.456052464828141, 51.217580843030454 ], [ 2.45679819919764, 51.217789243803132 ], [ 2.460079766655473, 51.219950270640169 ], [ 2.467798514877116, 51.224552288879771 ], [ 2.468098335992211, 51.224722346742247 ], [ 2.477081815532467, 51.229541776080268 ], [ 2.486475730912096, 51.234042896655822 ], [ 2.496251555280705, 51.238211986454985 ], [ 2.506379572802862, 51.242036332208549 ], [ 2.516828970012539, 51.245504268972553 ], [ 2.527567930874447, 51.248605216480925 ], [ 2.538563735243199, 51.251329712147935 ], [ 2.548289820442166, 51.2533581448427 ], [ 2.554195861242845, 51.2554051775817 ], [ 2.562461244023487, 51.258123895894556 ], [ 2.574477183685559, 51.261868301146883 ], [ 2.584794959555728, 51.264871237754285 ], [ 2.595190114066892, 51.267485639903377 ], [ 2.603049838209138, 51.270816263781683 ], [ 2.613472396362287, 51.274713142065963 ], [ 2.613570869340776, 51.274747628068852 ], [ 2.622864409429807, 51.277817365602736 ], [ 2.632387093747466, 51.280597933754315 ], [ 2.642116045087183, 51.283082642083578 ], [ 2.643480263799388, 51.283383143546892 ], [ 2.645041033279699, 51.283857285757072 ], [ 2.654186225238143, 51.287638580466528 ], [ 2.657761906558278, 51.289035243035855 ], [ 2.659230572366562, 51.289601188984904 ], [ 2.659342437601694, 51.289649407713178 ], [ 2.667125748515199, 51.292610943863082 ], [ 2.671291170089777, 51.294343890577629 ], [ 2.673250519597196, 51.295111708508379 ], [ 2.682750452788342, 51.299111753993934 ], [ 2.691215847275438, 51.302454648827982 ], [ 2.695049210738913, 51.304045342748964 ], [ 2.70265721647478, 51.307392228556466 ], [ 2.709993456841048, 51.310384390889531 ], [ 2.716885898015795, 51.313302346427548 ], [ 2.731928089266746, 51.319901049535652 ], [ 2.733571128710993, 51.320660425847976 ], [ 2.73821885767234, 51.32297192908279 ], [ 2.746504137309188, 51.326891203222395 ], [ 2.746897203688183, 51.327059096935692 ], [ 2.747478810425755, 51.327354660979843 ], [ 2.75531113365707, 51.331103004432613 ], [ 2.760979481377152, 51.334796052873159 ], [ 2.769334881757763, 51.339689124239413 ], [ 2.769857087999569, 51.339963821911972 ], [ 2.777610171834259, 51.34424908047658 ], [ 2.786008066993035, 51.348441933679482 ], [ 2.79473090692467, 51.352366635714404 ], [ 2.803756907011373, 51.356013350505698 ], [ 2.804087923993204, 51.356139856963864 ], [ 2.80705610609629, 51.357189694167388 ], [ 2.808618040696345, 51.357810190608895 ], [ 2.817398929788559, 51.360946058404409 ], [ 2.817766892729482, 51.361070370057725 ], [ 2.828638952361782, 51.364497830974393 ], [ 2.839804483738436, 51.367534211969392 ], [ 2.851227582069086, 51.370169735838964 ], [ 2.851313692788365, 51.370187884875747 ], [ 2.852914148107434, 51.370492557850504 ], [ 2.854025357062667, 51.370943628105884 ], [ 2.856811299552434, 51.372226653571197 ], [ 2.866979334301499, 51.376376931497575 ], [ 2.86735628762731, 51.376521454597487 ], [ 2.881677808095382, 51.38274896801628 ], [ 2.883640949083626, 51.383592320050845 ], [ 2.892420039128074, 51.387318491410447 ], [ 2.900497623925071, 51.390819125016925 ], [ 2.907125393875847, 51.393883774776967 ], [ 2.911577163559314, 51.395887533388439 ], [ 2.927777075998857, 51.402982416076526 ], [ 2.929696964950445, 51.403891831477424 ], [ 2.930938331315475, 51.404568515135658 ], [ 2.937966647163898, 51.408237831554764 ], [ 2.945238843255742, 51.411716741236354 ], [ 2.951669567855502, 51.414659081945196 ], [ 2.962587427488351, 51.419338085613852 ], [ 2.973945994935411, 51.423588299283004 ], [ 2.97987185245917, 51.425653218674341 ], [ 2.988995752556435, 51.428655201818991 ], [ 2.993258261680377, 51.429898489953928 ], [ 2.993548830201668, 51.430179266102648 ], [ 3.000146151700374, 51.435877767514242 ], [ 3.007211662482854, 51.441353004302918 ], [ 3.014639319428609, 51.446533139708983 ], [ 3.022476700738177, 51.451460740135509 ], [ 3.022849361012836, 51.451672027608133 ], [ 3.023370676169977, 51.452014272359122 ], [ 3.023898943344324, 51.452353967654183 ], [ 3.026163166198097, 51.453846042482184 ], [ 3.027650991300507, 51.454803745081072 ], [ 3.028403102634315, 51.455287434633796 ], [ 3.033265906594398, 51.458316313112455 ], [ 3.033452434259083, 51.458428843620268 ], [ 3.043115405733058, 51.463914310125553 ], [ 3.053293989285057, 51.469023840250408 ], [ 3.061756479235338, 51.472767943202427 ], [ 3.063544823898238, 51.47357868911314 ], [ 3.064097928447671, 51.473815445409677 ], [ 3.065544704200626, 51.474399307213282 ], [ 3.065801446389008, 51.474505730026557 ], [ 3.065803540391, 51.474503759897786 ], [ 3.073943327244124, 51.477788019979386 ], [ 3.084121118788973, 51.481420164667014 ], [ 3.084522251412732, 51.481554401471705 ], [ 3.094682184691247, 51.484741589517945 ], [ 3.105098061284748, 51.487589510460701 ], [ 3.115740809728049, 51.490090204719237 ], [ 3.126580709052898, 51.492236681986086 ], [ 3.137587473515959, 51.494022941231634 ], [ 3.148730339096969, 51.495443987887825 ], [ 3.148892887459068, 51.495461940195618 ], [ 3.157399237374322, 51.49629229427606 ], [ 3.165952096123859, 51.496909748857192 ], [ 3.177255114854849, 51.497582574611364 ], [ 3.179103031758811, 51.497687472442792 ], [ 3.179186470157775, 51.497691982693141 ], [ 3.190209773744779, 51.498110435521852 ], [ 3.201253008981447, 51.498175621116935 ], [ 3.212287051111928, 51.497887367594473 ], [ 3.223282800256025, 51.497246435033745 ], [ 3.23421126014247, 51.49625451342218 ], [ 3.235110537814405, 51.496158129672374 ], [ 3.241203387526239, 51.495448587694234 ], [ 3.242263594625352, 51.495315233222037 ], [ 3.242345305862676, 51.495306383858498 ], [ 3.244799717110566, 51.495031421915215 ], [ 3.247779565726996, 51.49468642792786 ], [ 3.24965844007044, 51.494496038722694 ], [ 3.249999381121301, 51.494460032413215 ], [ 3.256476677604167, 51.493712177609538 ], [ 3.256512675684262, 51.49370766482533 ], [ 3.257795884558368, 51.493542617362728 ], [ 3.259653536462612, 51.493346843617019 ], [ 3.26051537585554, 51.493241435955191 ], [ 3.263408102424411, 51.492841953749206 ], [ 3.266200110391565, 51.493464928380661 ], [ 3.267319473260202, 51.493675459193682 ], [ 3.269832644930779, 51.494481196643889 ], [ 3.280091853157401, 51.497358670569064 ], [ 3.290578320321058, 51.499897946423459 ], [ 3.301263409959101, 51.502092082668064 ], [ 3.312117929217246, 51.503935080363618 ], [ 3.323112210361183, 51.505421899968049 ], [ 3.334216193746173, 51.506548475454274 ], [ 3.345399511991914, 51.50731172570589 ], [ 3.356631575105105, 51.507709563154791 ], [ 3.367881656288267, 51.507740899635245 ], [ 3.379118978170599, 51.507405649435647 ], [ 3.390312799194891, 51.506704729538924 ], [ 3.401432499893921, 51.505640057050698 ], [ 3.412447668790175, 51.504214543823245 ], [ 3.423328187654286, 51.502432088291769 ], [ 3.434044315860226, 51.500297564547822 ], [ 3.444566773578886, 51.497816808683915 ], [ 3.454866823556516, 51.494996602450634 ], [ 3.464916351230068, 51.491844654276555 ], [ 3.474687942938268, 51.488369577708994 ], [ 3.4841549619948, 51.484580867340924 ], [ 3.49329162239846, 51.480488872297563 ], [ 3.502073059964437, 51.4761047673626 ], [ 3.510475400670915, 51.471440521831639 ], [ 3.518475826025949, 51.466508866186089 ], [ 3.526052635270916, 51.461323256687628 ], [ 3.5331853042488, 51.455897837999068 ], [ 3.539854540777965, 51.450247403942072 ], [ 3.546042336384939, 51.444387356508614 ], [ 3.551392286501861, 51.438695178644402 ], [ 3.561108226651065, 51.439678818610751 ], [ 3.572312013510926, 51.440439430483075 ], [ 3.583564306993476, 51.440832255060812 ], [ 3.594834128206443, 51.440856211013958 ], [ 3.606090448747902, 51.440511232399075 ], [ 3.617302278351167, 51.439798268845749 ], [ 3.628438752411268, 51.438719282876015 ], [ 3.63946921912131, 51.437277244365816 ], [ 3.650363325948666, 51.435476122165596 ], [ 3.66109110518365, 51.433320872905398 ], [ 3.671623058297061, 51.430817427019747 ], [ 3.681930238847937, 51.427972672034926 ], [ 3.691984333688668, 51.424794433170256 ], [ 3.693900643185644, 51.424148674340294 ], [ 3.697587169386666, 51.422828765582302 ], [ 3.699903093353512, 51.422578443041523 ], [ 3.7104751291575, 51.421089665014797 ], [ 3.720913394042203, 51.419269756814252 ], [ 3.731191319034068, 51.417123352970385 ], [ 3.741282753651928, 51.414655918773754 ], [ 3.751162033895336, 51.411873736023743 ], [ 3.76080404884515, 51.408783886657886 ], [ 3.761027459640724, 51.408707786476946 ], [ 3.764971346436695, 51.407330569414022 ], [ 3.767210081813465, 51.406529342671071 ], [ 3.774367785788294, 51.404676419132592 ], [ 3.775528084557529, 51.404530624364824 ], [ 3.778166245954779, 51.404092804834001 ], [ 3.779775793148619, 51.403989924757227 ], [ 3.779848163078329, 51.403984108624527 ], [ 3.790711557372656, 51.40293377306012 ], [ 3.801474602864222, 51.401537413393825 ], [ 3.81210907774996, 51.399798691747542 ], [ 3.822587105975886, 51.39772216767679 ], [ 3.832881232015084, 51.395313285920366 ], [ 3.833947665583752, 51.395044082640993 ], [ 3.836988283350078, 51.39425952703769 ], [ 3.838356747938542, 51.393898725585139 ], [ 3.838862853782261, 51.393765282347154 ], [ 3.844836509070016, 51.392122937372946 ], [ 3.845167846031272, 51.392028060125561 ], [ 3.85543189951802, 51.388879687047293 ], [ 3.857261677826232, 51.388240852039964 ], [ 3.862321924370841, 51.386905938228963 ], [ 3.872625207159044, 51.383773539163442 ], [ 3.882646397794512, 51.380302067470652 ], [ 3.883127755513, 51.380124661941402 ], [ 3.883329876390555, 51.380053839462263 ], [ 3.894161091781239, 51.375992361518115 ], [ 3.894901511436677, 51.375676346917935 ], [ 3.901639819366038, 51.373427747236313 ], [ 3.911433895506827, 51.369727481502295 ], [ 3.919944506055169, 51.366111647560849 ], [ 3.922787403594965, 51.366967502288276 ], [ 3.923627568428484, 51.367205752351182 ], [ 3.927547237765829, 51.368287885486914 ], [ 3.929553077525162, 51.368826732502264 ], [ 3.929863943515436, 51.368910058271126 ], [ 3.930222248238568, 51.369005890039695 ], [ 3.935492903060269, 51.37036406831767 ], [ 3.935915864728712, 51.370468971655562 ], [ 3.946407782570643, 51.372875423787441 ], [ 3.957085954095287, 51.374937120800098 ], [ 3.967921425125694, 51.376648468830226 ], [ 3.978884803944326, 51.378004824039635 ], [ 3.987931671501579, 51.378820874824932 ], [ 3.990073927423618, 51.379768280243773 ], [ 3.999149597860677, 51.383859615407317 ], [ 4.001949498293033, 51.385174536322815 ], [ 4.002219957995702, 51.387449257727098 ], [ 4.003632956834505, 51.394410176956796 ], [ 4.005623478142231, 51.401315622155501 ], [ 4.008186377615544, 51.408146858571875 ], [ 4.011314949614307, 51.414885344740419 ], [ 4.015000942742057, 51.421512783096382 ], [ 4.019234579755647, 51.428011170010222 ], [ 4.024004581777156, 51.434362845100821 ], [ 4.029298196767582, 51.44055053968836 ], [ 4.035101232208388, 51.446557424248923 ], [ 4.041398091923174, 51.452367154734709 ], [ 4.048171816957962, 51.45796391762709 ], [ 4.055404130424915, 51.463332473591322 ], [ 4.063075486200487, 51.468458199606374 ], [ 4.071165121355578, 51.47332712944629 ], [ 4.079651112181826, 51.477925992393722 ], [ 4.0885104336652, 51.482242250071671 ], [ 4.097719022245333, 51.486264131283541 ], [ 4.107251841686756, 51.489980664757901 ], [ 4.11708295187649, 51.493381709699591 ], [ 4.127185580351213, 51.496457984055461 ], [ 4.13753219634672, 51.499201090409336 ], [ 4.148094587152522, 51.501603539428167 ], [ 4.158843936545416, 51.503658770787318 ], [ 4.16975090506751, 51.505361171512547 ], [ 4.18078571190697, 51.506706091681387 ], [ 4.186125064659731, 51.507178058908629 ], [ 4.188556484025409, 51.510273455473424 ], [ 4.19380924688106, 51.516188682380104 ], [ 4.199532214530931, 51.521931825505277 ], [ 4.205711091238902, 51.527488367430372 ], [ 4.20798512490274, 51.529328538680318 ], [ 4.209933897703585, 51.531045788628958 ], [ 4.217107776014402, 51.536698969984677 ], [ 4.224757759667556, 51.542104383958645 ], [ 4.232862005243542, 51.547246483095115 ], [ 4.241397339210834, 51.552110472369613 ], [ 4.24154105716037, 51.552188064540537 ], [ 4.250347519320021, 51.556694286009382 ], [ 4.259524155931724, 51.560904410217077 ], [ 4.269045412052228, 51.56480666998138 ], [ 4.278884748690802, 51.568390155793814 ], [ 4.289014717685376, 51.571644846966535 ], [ 4.299407039398078, 51.574561640268449 ], [ 4.306436191037633, 51.576262390128754 ], [ 4.310049493145982, 51.577456287787584 ], [ 4.310921096862118, 51.577746856404744 ], [ 4.3123024515115, 51.578203348638887 ], [ 4.31412123766856, 51.578799122568682 ], [ 4.314982336900306, 51.57908641268255 ], [ 4.315238163431482, 51.57917162521953 ], [ 4.322478503279016, 51.581579043545112 ], [ 4.324510965100288, 51.582246102552588 ], [ 4.327314656011271, 51.583154379866784 ], [ 4.32872104973791, 51.583619913370924 ], [ 4.330741211242153, 51.584282638730471 ], [ 4.331091234608853, 51.584397206093676 ], [ 4.331364754426331, 51.584486533141316 ], [ 4.331452733026015, 51.584516579440752 ], [ 4.338899121424741, 51.586943353992559 ], [ 4.339786401736796, 51.587218935656573 ], [ 4.34105114170315, 51.587608227888111 ], [ 4.342112690590093, 51.587977435750759 ], [ 4.351883720540424, 51.590983717205397 ], [ 4.36188651440702, 51.593678949683209 ], [ 4.369364297827612, 51.595420351705947 ], [ 4.375810876055277, 51.597664052346389 ], [ 4.38679566500302, 51.600994247618729 ], [ 4.398066123720463, 51.603932115235033 ], [ 4.398696260546767, 51.604083463997121 ], [ 4.409167092654498, 51.6064072946713 ], [ 4.419816634040852, 51.60839243355376 ], [ 4.430616591705316, 51.610033603706803 ], [ 4.430945914952438, 51.610078085936436 ], [ 4.442083522520405, 51.611392811928646 ], [ 4.453316891100177, 51.612341732334315 ], [ 4.459610207060025, 51.612665214802817 ], [ 4.46023095188893, 51.612709485644885 ], [ 4.461125386499779, 51.612743046191682 ], [ 4.464614963734816, 51.612922223765594 ], [ 4.466821610672147, 51.612999329831403 ], [ 4.466825447052357, 51.612956762385828 ], [ 4.471868221704369, 51.613145605735937 ], [ 4.480073028909848, 51.613176957936091 ], [ 4.481814040617001, 51.613354710780264 ], [ 4.484212381634826, 51.613599393414106 ], [ 4.487085347761631, 51.613880108989576 ], [ 4.490073554568753, 51.614159219906988 ], [ 4.492094128906356, 51.614347920551957 ], [ 4.494188198877256, 51.614545344092079 ], [ 4.498327566991429, 51.614910068013877 ], [ 4.501106408788212, 51.615137818063275 ], [ 4.502035610129341, 51.615220336744017 ], [ 4.503281238442061, 51.615342291555521 ], [ 4.509266835771245, 51.615874927709356 ], [ 4.51069991572571, 51.615989719319145 ], [ 4.52192212960735, 51.616703588729173 ], [ 4.533189047852687, 51.617051594923446 ], [ 4.544469825395903, 51.617032785346417 ], [ 4.555733578239685, 51.616647211485216 ], [ 4.566949470210249, 51.615895928725045 ], [ 4.578086799564635, 51.614780993387221 ], [ 4.589115085182865, 51.613305456958422 ], [ 4.600004152079282, 51.611473357529505 ], [ 4.610724215970134, 51.609289708469838 ], [ 4.621183205124521, 51.606775574600988 ], [ 4.62716397821248, 51.609583435991212 ], [ 4.636418619576396, 51.613477886938938 ], [ 4.64598505331089, 51.617069222727288 ], [ 4.650599559739802, 51.618604918187543 ], [ 4.655310655395404, 51.620330588302288 ], [ 4.66541076322305, 51.623597312545911 ], [ 4.66551347393233, 51.62362842045664 ], [ 4.674851347285303, 51.626287529693137 ], [ 4.684382236601266, 51.628667396272725 ], [ 4.694084569442394, 51.630762627523822 ], [ 4.696007383684305, 51.631146213110874 ], [ 4.698166517081189, 51.63157971531124 ], [ 4.698716816123525, 51.631693028483923 ], [ 4.700293897823077, 51.632013586525943 ], [ 4.702785805885523, 51.63251347665441 ], [ 4.703188704219403, 51.632594024030354 ], [ 4.704025758471128, 51.632760801372164 ], [ 4.704876492716369, 51.632929800583831 ], [ 4.706625426106465, 51.633272002089974 ], [ 4.706936928965836, 51.633332048204601 ], [ 4.707172008879788, 51.633377271144624 ], [ 4.710089798798857, 51.633937398456865 ], [ 4.710125263126224, 51.633944206261141 ], [ 4.721162449866712, 51.635864897634654 ], [ 4.732348222894365, 51.637418614285153 ], [ 4.743651018531317, 51.63860097098204 ], [ 4.755038934281803, 51.639408630337428 ], [ 4.766479821125847, 51.639839312462485 ], [ 4.777941376597506, 51.639891801565767 ], [ 4.789391238351796, 51.639565949472427 ], [ 4.800797077922398, 51.63886267605313 ], [ 4.812126694371417, 51.637783966561315 ], [ 4.812249324830187, 51.637770209614814 ], [ 4.815576884775515, 51.637323962625445 ], [ 4.825443411597029, 51.636143118359193 ], [ 4.837102114166551, 51.634324186381107 ], [ 4.848579689326198, 51.632104548694038 ], [ 4.850681148666456, 51.631657856716593 ], [ 4.860694012471902, 51.629355887393345 ], [ 4.869676932454947, 51.626970536936014 ], [ 4.875056429036087, 51.625802294057756 ], [ 4.885464869377397, 51.623156418859203 ], [ 4.887860702298599, 51.622454824703183 ], [ 4.891968648000884, 51.621423646801908 ], [ 4.901565938637942, 51.618633464526731 ], [ 4.902879146432402, 51.618286875988801 ], [ 4.91233284213439, 51.615447258890285 ], [ 4.921553157712316, 51.612325051648121 ], [ 4.922835274369161, 51.611865392239146 ], [ 4.933292543417239, 51.607865484566723 ], [ 4.934634336624415, 51.607284451096575 ], [ 4.935045081893778, 51.607423284364984 ], [ 4.944951458371707, 51.610376399443666 ], [ 4.955086803835449, 51.613012047632935 ], [ 4.965424860179328, 51.615323392292069 ], [ 4.975938830569572, 51.617304437056866 ], [ 4.986601450384402, 51.61895004176818 ], [ 4.997385059516011, 51.620255936133518 ], [ 5.008261675826032, 51.621218731081804 ], [ 5.019203069541673, 51.621835927778122 ], [ 5.020737751779048, 51.621898035136923 ], [ 5.034124993839836, 51.622180563473044 ], [ 5.034944378246432, 51.622182024650265 ], [ 5.045658240003222, 51.622035568440197 ], [ 5.056347162374222, 51.62155842656108 ], [ 5.057201181066437, 51.621507014104672 ], [ 5.071609464071447, 51.620333798004857 ], [ 5.074080722435005, 51.620079634117879 ], [ 5.085440255969364, 51.618715652073504 ], [ 5.096665758749809, 51.616974913483524 ], [ 5.107724936820259, 51.614862427838034 ], [ 5.118585986953907, 51.612384273697572 ], [ 5.129217690171564, 51.60954758077748 ], [ 5.139589503374113, 51.606360508945862 ], [ 5.149671648798296, 51.602832224203162 ], [ 5.15102453699408, 51.602328592541802 ], [ 5.160661636792231, 51.598521995903027 ], [ 5.1699615568252, 51.59440364206791 ], [ 5.173021988896849, 51.592890657208862 ], [ 5.180970906922601, 51.590416105183849 ], [ 5.191325705347245, 51.586734047771856 ], [ 5.201337516546205, 51.582701468001346 ], [ 5.210975819129539, 51.578330695042446 ], [ 5.220211258200025, 51.573635088501526 ], [ 5.229015735626914, 51.568628996747933 ], [ 5.237362496088442, 51.563327712206863 ], [ 5.245226208613325, 51.557747423768227 ], [ 5.245454108335039, 51.557576390589738 ], [ 5.252512042150036, 51.551984830356808 ], [ 5.259085225189112, 51.546168524363289 ], [ 5.265155440205693, 51.540143755012444 ], [ 5.270705898117261, 51.533927381972426 ], [ 5.275721283399401, 51.527536794359925 ], [ 5.280187795089037, 51.520989861497078 ], [ 5.283394680774881, 51.515500684400322 ], [ 5.283507868400142, 51.515336428070505 ], [ 5.286247594202074, 51.511082798351552 ], [ 5.288447673846096, 51.50767964428195 ], [ 5.290182156580954, 51.504843583147057 ], [ 5.291501354827812, 51.50292750987488 ], [ 5.29242941741841, 51.501475763137861 ], [ 5.292987575571561, 51.500593597672847 ], [ 5.29387315090839, 51.499179332808524 ], [ 5.295300724421869, 51.496931931747902 ], [ 5.297557674590884, 51.493017294346757 ], [ 5.297590008053628, 51.492966465857918 ], [ 5.300186635748067, 51.488884132302431 ], [ 5.30267530288099, 51.484970790930603 ], [ 5.302722472419625, 51.48489661407951 ], [ 5.304996370478987, 51.481320352263864 ], [ 5.305286167184327, 51.480862092622218 ], [ 5.305302885463368, 51.480835513389209 ], [ 5.309186055774926, 51.474147495700294 ], [ 5.31249782111703, 51.467340752582409 ], [ 5.315229189132105, 51.46043428602345 ], [ 5.317372798505258, 51.453447368047321 ], [ 5.318922936719063, 51.446399486611767 ], [ 5.319875553086555, 51.439310290995564 ], [ 5.320104114469968, 51.434702718511325 ], [ 5.320961926274376, 51.434359514433353 ], [ 5.322884154213607, 51.433545154773448 ], [ 5.323271891670116, 51.433380496305737 ], [ 5.324989649395634, 51.432649288891533 ], [ 5.326978863329297, 51.431822715428737 ], [ 5.332456205556895, 51.42955173669457 ], [ 5.335073906258394, 51.42847091568224 ], [ 5.338085268917226, 51.427225011051029 ], [ 5.338530700771657, 51.42704020149371 ], [ 5.339688390962247, 51.426558568077454 ], [ 5.343802884361601, 51.424797484367112 ], [ 5.343823312644852, 51.424789208791402 ], [ 5.346378017695212, 51.423734670273618 ], [ 5.347331329695426, 51.423338857887707 ], [ 5.348653100237496, 51.422786873064709 ], [ 5.349567187617277, 51.422413285087941 ], [ 5.351260130321883, 51.421711963861163 ], [ 5.358139067764934, 51.418961784572225 ], [ 5.367495676659773, 51.415000072388551 ], [ 5.368601838558815, 51.414476729731454 ], [ 5.372413784294677, 51.415992238147801 ], [ 5.382226959117893, 51.41945639869455 ], [ 5.392317589545017, 51.422594385647372 ], [ 5.402657948611, 51.425397561204157 ], [ 5.413219605584762, 51.427858207735433 ], [ 5.423973505646169, 51.429969549526845 ], [ 5.43489005148551, 51.431725771880956 ], [ 5.445939186577841, 51.433122037518864 ], [ 5.457090479877882, 51.434154500231251 ], [ 5.468313211675304, 51.434820315737134 ], [ 5.479576460345545, 51.435117649715927 ], [ 5.490849189727656, 51.435045682988871 ], [ 5.502100336857978, 51.434604613833116 ], [ 5.513298899787165, 51.433795657421555 ], [ 5.518641423530692, 51.433231211923939 ], [ 5.518764247150107, 51.433219200794639 ], [ 5.522601041305105, 51.432821743001078 ], [ 5.523577382758617, 51.432714919704075 ], [ 5.524272474646524, 51.432636007969144 ], [ 5.524414025207548, 51.432621042390146 ], [ 5.524535723643443, 51.43260612095311 ], [ 5.526280498471929, 51.432408018567763 ], [ 5.526479655230792, 51.432384584498635 ], [ 5.527642496557392, 51.432245683244901 ], [ 5.528490386001888, 51.432142886717365 ], [ 5.530671799476571, 51.431871082952149 ], [ 5.530760943521527, 51.43185967562858 ], [ 5.541577382782374, 51.430292646467457 ], [ 5.541687239015629, 51.430274850991502 ], [ 5.547360934418625, 51.42930381193429 ], [ 5.549064185743281, 51.428996573991427 ], [ 5.552208106339886, 51.428485801091092 ], [ 5.55466725711002, 51.428093622767868 ], [ 5.558668811053701, 51.4274649100335 ], [ 5.559127633894613, 51.427392476701776 ], [ 5.564081101829305, 51.426606741066806 ], [ 5.564599469535454, 51.426524074384091 ], [ 5.567538471699519, 51.426052900585468 ], [ 5.56871296254401, 51.425866065622579 ], [ 5.580087160098208, 51.423846887104247 ], [ 5.591266116841401, 51.421439931859297 ], [ 5.602215980052609, 51.418652494660058 ], [ 5.6129036082466, 51.415493022021074 ], [ 5.62329667348756, 51.411971086002637 ], [ 5.633363760948957, 51.408097354545902 ], [ 5.643074465391569, 51.403883558438665 ], [ 5.652399484245116, 51.399342455023472 ], [ 5.66131070699372, 51.39448778876951 ], [ 5.669781300581144, 51.389334248839887 ], [ 5.669825672293609, 51.389305726098684 ], [ 5.677478438892239, 51.384120750226842 ], [ 5.684685359867445, 51.378691827912071 ], [ 5.691426733522536, 51.373033918918829 ], [ 5.695062177572626, 51.369623024246444 ], [ 5.70238868941806, 51.36558562461633 ], [ 5.710252438415368, 51.360783594774354 ], [ 5.717713177528978, 51.355736284284923 ], [ 5.724751513209844, 51.350456902581911 ], [ 5.731349176218807, 51.344959261952319 ], [ 5.73748906867635, 51.339257740812656 ], [ 5.743155307805815, 51.333367245531129 ], [ 5.748333266264507, 51.327303170903491 ], [ 5.750616158401567, 51.324266046410649 ], [ 5.755552516574625, 51.324203929227416 ], [ 5.766711164586991, 51.32369833424768 ], [ 5.777812416054022, 51.322828982978031 ], [ 5.788826005163116, 51.321598245506642 ], [ 5.799721911243421, 51.320009476935837 ], [ 5.810470442613913, 51.31806700800724 ], [ 5.821042319422457, 51.315776133005407 ], [ 5.821641119551379, 51.315624072760095 ], [ 5.821647408083194, 51.315622772850688 ], [ 5.832212516635151, 51.313044057789639 ], [ 5.842544895300191, 51.310119176264003 ], [ 5.844940589106488, 51.309343107216023 ], [ 5.848509897728833, 51.308492091045032 ], [ 5.858367058446038, 51.305779954954332 ], [ 5.867994161465178, 51.302761303975011 ], [ 5.877366952847135, 51.29944375679257 ], [ 5.881337708106052, 51.297868655826072 ], [ 5.886892815822195, 51.296904512846446 ], [ 5.897460416598569, 51.294694257264027 ], [ 5.907830164261394, 51.292142945528347 ], [ 5.917974039734594, 51.289257478836738 ], [ 5.927864649516379, 51.286045660922881 ], [ 5.937475301035445, 51.282516176464355 ], [ 5.946780075893979, 51.278678567070571 ], [ 5.947813209605489, 51.278227913248351 ], [ 5.956736511799662, 51.274116953720188 ], [ 5.96530888533711, 51.269722621691436 ], [ 5.966594804248793, 51.269027903876825 ], [ 5.971368442984694, 51.266370171646791 ], [ 5.972054844804839, 51.265976389934039 ], [ 5.980959845202371, 51.260562521598253 ], [ 5.989350234687489, 51.254834791344472 ], [ 5.991502458668535, 51.25318339552571 ], [ 5.998464933050187, 51.248130165223429 ], [ 6.005175755867243, 51.242725857112475 ], [ 6.010577038473145, 51.237886534942817 ], [ 6.015474826560502, 51.234622882793069 ], [ 6.022809450214771, 51.229185119616751 ], [ 6.029674554525794, 51.223511241977747 ], [ 6.036051038135663, 51.217617179782486 ], [ 6.041921192044801, 51.211519475086426 ], [ 6.047268747912434, 51.20523523500723 ], [ 6.052078922037796, 51.198782083102486 ], [ 6.056338454916262, 51.192178109356746 ], [ 6.06003564628003, 51.185441818926833 ], [ 6.063160385548519, 51.178592079796204 ], [ 6.065704177628954, 51.171648069492093 ], [ 6.067660164022998, 51.164629221020718 ], [ 6.069023139210211, 51.15755516817687 ], [ 6.069789562294067, 51.150445690385325 ], [ 6.069957563910631, 51.143320657231278 ], [ 6.069526948414135, 51.136199972837623 ], [ 6.068499191367426, 51.129103520244961 ], [ 6.066877432378365, 51.122051105950483 ], [ 6.064666463336141, 51.115062404759414 ], [ 6.061872712113503, 51.108156905100763 ], [ 6.058504221812708, 51.101353854957459 ], [ 6.058438467744032, 51.101232428533997 ], [ 6.054380816970416, 51.09435638870346 ], [ 6.049736591797752, 51.087629284603977 ], [ 6.046130325232569, 51.083095916386235 ], [ 6.045836277838759, 51.081560744415711 ], [ 6.045629067757398, 51.080671322779551 ], [ 6.043648925314465, 51.073517270079321 ], [ 6.041060958159631, 51.0664406845504 ], [ 6.040693896981425, 51.065547479453912 ], [ 6.035960352839896, 51.05561668767205 ], [ 6.034979962204833, 51.053814055610466 ], [ 6.029628521009411, 51.044992206460378 ], [ 6.02933321581386, 51.044552152638559 ], [ 6.027787349773249, 51.04230549128183 ], [ 6.027431156039222, 51.041800403295412 ], [ 6.022187894057986, 51.034898636800705 ], [ 6.01633367497573, 51.028195238744892 ], [ 6.009887535935543, 51.021711713744047 ], [ 6.008877552063293, 51.020756991973336 ], [ 6.000207147756049, 51.013170213611346 ], [ 5.998803898001119, 51.010859699156299 ], [ 5.998267464213886, 51.010028986751145 ], [ 5.994431403735989, 51.004451026504341 ], [ 5.990201621510583, 50.998987691755815 ], [ 5.985586822445459, 50.993650050956589 ], [ 5.985228186290586, 50.993256552525246 ], [ 5.985184809583983, 50.993211990907859 ], [ 5.985119125470273, 50.993004296092138 ], [ 5.98253058371998, 50.986514549985181 ], [ 5.982413237274576, 50.986248391920476 ], [ 5.979257475245813, 50.979731844452076 ], [ 5.978881147804403, 50.979019523202616 ], [ 5.978543805151646, 50.978397098580182 ], [ 5.978452022610351, 50.977975297762043 ], [ 5.9762833585406, 50.9708641400034 ], [ 5.973513899463265, 50.96383667326274 ], [ 5.971877333093428, 50.960466688044711 ], [ 5.972158199142882, 50.95640754456489 ], [ 5.972180345543079, 50.955708733703318 ], [ 5.97215379795422, 50.949574804007504 ], [ 5.971685721238303, 50.943447971260184 ], [ 5.970777256320825, 50.937340909466549 ], [ 5.970664370819646, 50.936731171087231 ], [ 5.96922963021755, 50.930318888174249 ], [ 5.96730981027742, 50.923957491926096 ], [ 5.964909528466117, 50.917661632853878 ], [ 5.962034502379513, 50.911445804756532 ], [ 5.961590117487371, 50.910564077567486 ], [ 5.958017004206723, 50.904053376571348 ], [ 5.954152668943706, 50.898024032056384 ], [ 5.958168997499969, 50.89719073945129 ], [ 5.968710379469691, 50.894603859210413 ], [ 5.979018830921223, 50.891666277789241 ], [ 5.98906517873086, 50.88838632100169 ], [ 5.998821009799587, 50.884773283217299 ], [ 6.008258752748742, 50.880837400432057 ], [ 6.017351756966448, 50.876589820636617 ], [ 6.026074368765634, 50.872042571574312 ], [ 6.034402004426001, 50.867208525990044 ], [ 6.042311219904784, 50.862101364478235 ], [ 6.049779777014125, 50.856735536045093 ], [ 6.056786705876742, 50.851126216507041 ], [ 6.063312363485734, 50.845289264853328 ], [ 6.069338488209137, 50.839241177706121 ], [ 6.074848250094929, 50.832999042017192 ], [ 6.079826296847619, 50.826580486143925 ], [ 6.08425879536304, 50.820003629452593 ], [ 6.084520155707755, 50.819550635971709 ], [ 6.085003731655022, 50.818867043664241 ], [ 6.088834005878407, 50.812642439716377 ], [ 6.089642353024224, 50.81110793692514 ], [ 6.091181356772406, 50.809510432070788 ], [ 6.096570413129401, 50.80317910715538 ], [ 6.101417586688526, 50.796674468182857 ], [ 6.10237189517594, 50.795193848476188 ], [ 6.10541895246708, 50.790852029360778 ], [ 6.109418836490269, 50.78423509694214 ], [ 6.111016964300796, 50.78110815355641 ], [ 6.113289436536297, 50.777041444745471 ], [ 6.116462332651534, 50.770247393297566 ], [ 6.119067221449749, 50.763356962902115 ], [ 6.121097146659827, 50.756389216877153 ], [ 6.122546750736494, 50.749363424046791 ], [ 6.123412286908385, 50.742299005212914 ], [ 6.123691626689509, 50.735215479298994 ], [ 6.123384262865009, 50.728132409317503 ], [ 6.122491307974952, 50.721069348311282 ], [ 6.121015488332628, 50.714045785418783 ], [ 6.118961133625865, 50.707081092210856 ], [ 6.116334162161649, 50.700194469446075 ], [ 6.113142061825378, 50.693404894388422 ], [ 6.109393866836755, 50.686731068829104 ], [ 6.10510013039443, 50.680191367951323 ], [ 6.100272893310955, 50.673803790173622 ], [ 6.094925648748667, 50.667585908103575 ], [ 6.089073303175481, 50.661554820730323 ], [ 6.082732133667491, 50.655727106979889 ], [ 6.076891117994795, 50.650918575970429 ], [ 6.076162721714325, 50.6502368885942 ], [ 6.074710590112515, 50.649023555456601 ], [ 6.074437285958211, 50.648770942374838 ], [ 6.074423876183465, 50.64875915831486 ], [ 6.067878710060728, 50.643305069325017 ], [ 6.063821359033576, 50.638890021703112 ], [ 6.057646409975907, 50.632919333256773 ], [ 6.050984376411767, 50.627164697850318 ], [ 6.043854048290016, 50.621642196387739 ], [ 6.036275503107532, 50.616367255625015 ], [ 6.028270048963122, 50.61135460577524 ], [ 6.019860164469529, 50.606618240083691 ], [ 6.011069435694515, 50.602171376475567 ], [ 6.001922490306759, 50.598026421373888 ], [ 5.992444929106838, 50.594194935778219 ], [ 5.982663255127409, 50.59068760368995 ], [ 5.972604800490281, 50.587514202962168 ], [ 5.962297651211287, 50.584683578647095 ], [ 5.951770570146513, 50.582203618906689 ], [ 5.941052918275951, 50.580081233545734 ], [ 5.930174574522761, 50.578322335220314 ], [ 5.919165854308027, 50.576931823367602 ], [ 5.90805742704254, 50.575913570895892 ], [ 5.896880232758222, 50.575270413667887 ], [ 5.885665398082939, 50.575004142802207 ], [ 5.8744441517631, 50.575115499812043 ], [ 5.863247739938924, 50.575604174593003 ], [ 5.85210734137761, 50.576468806264565 ], [ 5.841053982869648, 50.577706986863291 ], [ 5.832452666419312, 50.57897207222608 ], [ 5.831703203937162, 50.578939302596346 ], [ 5.820670475764554, 50.578823147037632 ], [ 5.809643147232659, 50.579071994470389 ], [ 5.798650897902972, 50.579685175082567 ], [ 5.787723315351215, 50.58066103835538 ], [ 5.787122935163878, 50.580724817941196 ], [ 5.784918920291708, 50.580958928593809 ], [ 5.772684810914025, 50.5824945780886 ], [ 5.760612882097605, 50.584484717838492 ], [ 5.75516282365361, 50.585604366148331 ], [ 5.754640273860385, 50.585690045347299 ], [ 5.74362092360158, 50.587910652211171 ], [ 5.732807086602531, 50.590509597169557 ], [ 5.722230740631405, 50.593479202973548 ], [ 5.711923178645546, 50.596810695912133 ], [ 5.701914917964501, 50.600494231128785 ], [ 5.692235611464146, 50.604518921051572 ], [ 5.682913961031969, 50.608872866862932 ], [ 5.673977633520419, 50.613543192926059 ], [ 5.671887716189521, 50.614762538153322 ], [ 5.665751182583945, 50.615726246389372 ], [ 5.664027108900433, 50.616028969906424 ], [ 5.663490777548474, 50.616132497478816 ], [ 5.6564365396442, 50.617255172777377 ], [ 5.648304577090053, 50.618847533206463 ], [ 5.646953185942167, 50.619028865618276 ], [ 5.645166497903233, 50.619333389017804 ], [ 5.641598412911966, 50.619807101394585 ], [ 5.630455961264513, 50.621693071908275 ], [ 5.624861620612529, 50.622850061583613 ], [ 5.621280621500362, 50.620990701563777 ], [ 5.612712646202964, 50.616979268796577 ], [ 5.612637573378549, 50.61694592960832 ], [ 5.608983522845012, 50.6153589111751 ], [ 5.608838610193023, 50.61529736935428 ], [ 5.59920520057193, 50.61143932699359 ], [ 5.58926164890027, 50.607915096744954 ], [ 5.579036490358513, 50.604734769522068 ], [ 5.578132622469778, 50.604490912801793 ], [ 5.575682820794813, 50.60363773393555 ], [ 5.565577688246142, 50.600547829858925 ], [ 5.555231140435426, 50.597801495846305 ], [ 5.544671953547518, 50.595406360242194 ], [ 5.533929480103924, 50.593369074811818 ], [ 5.523033569099252, 50.591695296712118 ], [ 5.5120144849303, 50.590389673167266 ], [ 5.501908764215099, 50.58954041494286 ], [ 5.494838438065314, 50.588430927509819 ], [ 5.484100773031166, 50.58711504504717 ], [ 5.480417064309273, 50.586787809373583 ], [ 5.475667835006969, 50.586076389014615 ], [ 5.464891893417523, 50.584831642487146 ], [ 5.454029747143638, 50.583942159496999 ], [ 5.443110193914873, 50.583410298118906 ], [ 5.432162179732067, 50.58323746828804 ], [ 5.421214724095327, 50.583424128157482 ], [ 5.410296845062623, 50.58396978291465 ], [ 5.3995472163658, 50.584863864570806 ], [ 5.396079368911177, 50.585061214853589 ], [ 5.384975381262629, 50.586071966894309 ], [ 5.373970406471486, 50.587454495771084 ], [ 5.370776997275514, 50.587968615214336 ], [ 5.365670861936616, 50.586892949005872 ], [ 5.355518142289087, 50.5851045821843 ], [ 5.34523899001484, 50.583638882782978 ], [ 5.334858627911291, 50.582499446112259 ], [ 5.334764895764875, 50.582490674893251 ], [ 5.32362036617323, 50.581638651190531 ], [ 5.312420861907188, 50.581162667662895 ], [ 5.301197571948923, 50.581064049922368 ], [ 5.289981749811926, 50.581343072615056 ], [ 5.286120151252339, 50.581569798757549 ], [ 5.279409052451796, 50.581018070882195 ], [ 5.276211077512821, 50.580856374642444 ], [ 5.269844764658933, 50.57842200131239 ], [ 5.269370044151537, 50.578250981485475 ], [ 5.264766978345031, 50.57664019890305 ], [ 5.264622868243618, 50.576591236513785 ], [ 5.264579502884349, 50.576576506891556 ], [ 5.254446680439774, 50.573353563327629 ], [ 5.244059038550634, 50.5704793101335 ], [ 5.233446104942849, 50.567961906163433 ], [ 5.222638031469174, 50.565808496109703 ], [ 5.211665510229039, 50.564025190710275 ], [ 5.200559688344728, 50.562617049830557 ], [ 5.189352081608694, 50.561588068462029 ], [ 5.178074487218119, 50.56094116567175 ], [ 5.166758895813919, 50.560678176530622 ], [ 5.159252070704685, 50.560758974238119 ], [ 5.158451528347666, 50.560735385803156 ], [ 5.147573846415021, 50.560592600934754 ], [ 5.136698956549199, 50.5608049722617 ], [ 5.125855337352672, 50.561371943595056 ], [ 5.115071387643908, 50.562292030029099 ], [ 5.104375353978195, 50.563562821731601 ], [ 5.093795258515425, 50.565180990095669 ], [ 5.083358827399806, 50.567142296239631 ], [ 5.07420347998603, 50.569193018528331 ], [ 5.065048763338135, 50.569875622705496 ], [ 5.064306206069323, 50.569943838095533 ], [ 5.061007701550952, 50.570263711840028 ], [ 5.060214371720606, 50.570344708618357 ], [ 5.049847963601461, 50.571571883864046 ], [ 5.039893234218893, 50.573079315635148 ], [ 5.035070582250604, 50.573513800012492 ], [ 5.02404867190893, 50.574888986143563 ], [ 5.013155996363419, 50.576633346806808 ], [ 5.002422959615153, 50.578742015229977 ], [ 4.991879531335483, 50.581209107508485 ], [ 4.981555165047057, 50.584027738623 ], [ 4.971478717566817, 50.587190041193431 ], [ 4.961678369912149, 50.59068718692312 ], [ 4.952181549869509, 50.594509410680779 ], [ 4.943014856422741, 50.598646037160457 ], [ 4.934203986235969, 50.603085510053809 ], [ 4.925773662382999, 50.607815423662032 ], [ 4.92567577408484, 50.607876501669111 ], [ 4.915221002818662, 50.608027394561489 ], [ 4.90429504463332, 50.608544504553656 ], [ 4.893425326102948, 50.609419243291178 ], [ 4.882640659297482, 50.610649292233695 ], [ 4.871969636612176, 50.612231390856429 ], [ 4.861440556824897, 50.614161345075978 ], [ 4.851081351832022, 50.616434038091924 ], [ 4.840919514233893, 50.619043443620001 ], [ 4.830982025939742, 50.621982641485644 ], [ 4.821295287960949, 50.625243835541681 ], [ 4.813104554758, 50.628355211248312 ], [ 4.811654902488072, 50.628825750344596 ], [ 4.804386138368941, 50.629376808785779 ], [ 4.793433026190538, 50.630579433742234 ], [ 4.78259338111322, 50.632144508349995 ], [ 4.771896761121059, 50.634067766347876 ], [ 4.76547009593229, 50.635457850604233 ], [ 4.764594377801406, 50.635048639740631 ], [ 4.754802984756561, 50.630981282145143 ], [ 4.744675497555649, 50.627262600743741 ], [ 4.742572027324996, 50.626538499367022 ], [ 4.741883122743903, 50.626315830332103 ], [ 4.740508675708798, 50.625781432216421 ], [ 4.730747939119444, 50.622418782008552 ], [ 4.720725194734441, 50.619384903908809 ], [ 4.710467759669298, 50.61668805301543 ], [ 4.70000357446231, 50.614335566063914 ], [ 4.689361128472844, 50.612333841938629 ], [ 4.678569383969036, 50.6106883246865 ], [ 4.667657699089312, 50.609403489073671 ], [ 4.656655749863318, 50.60848282871882 ], [ 4.645593451479041, 50.607928846832493 ], [ 4.638407904356304, 50.607808611548982 ], [ 4.637741524101403, 50.607731004149322 ], [ 4.62665942638005, 50.606820823721606 ], [ 4.618070861428041, 50.606406015091011 ], [ 4.610898740032853, 50.604219381827647 ], [ 4.600609356303149, 50.601494763371562 ], [ 4.590110200093139, 50.599117269754508 ], [ 4.579430110998045, 50.597093425480374 ], [ 4.568598412898793, 50.595428783773073 ], [ 4.557644835261947, 50.594127911712121 ], [ 4.546599433467343, 50.593194378013251 ], [ 4.535492508355853, 50.592630743484079 ], [ 4.524354525190761, 50.592438554177193 ], [ 4.513216032226711, 50.592618337257285 ], [ 4.502107579080747, 50.593169599591995 ], [ 4.501204301876806, 50.593229626910144 ], [ 4.490987591976376, 50.594068369490863 ], [ 4.480846551524636, 50.595221371470586 ], [ 4.470804963510343, 50.596685929293827 ], [ 4.470710817697296, 50.59670275991742 ], [ 4.46765651030562, 50.595667391047876 ], [ 4.457653704172731, 50.592690643779491 ], [ 4.447421996104725, 50.590048800538995 ], [ 4.436988998092239, 50.587748982074608 ], [ 4.426382851498595, 50.585797386288824 ], [ 4.416663262128647, 50.584352596220938 ], [ 4.409698989067746, 50.581722977335964 ], [ 4.401192761417829, 50.578874152006101 ], [ 4.39734847946082, 50.577404363145284 ], [ 4.392703700781895, 50.575858018997906 ], [ 4.391689740287609, 50.575484490511329 ], [ 4.387907581756227, 50.574260989665248 ], [ 4.386266898338141, 50.573714598705919 ], [ 4.385161039617742, 50.573372386443417 ], [ 4.381407156618204, 50.57215771401934 ], [ 4.370856752834491, 50.569191435004797 ], [ 4.360069629321563, 50.5665943848011 ], [ 4.349077566528083, 50.564374206569781 ], [ 4.337912933271825, 50.562537433343799 ], [ 4.326608593527444, 50.561089469271138 ], [ 4.31519781194019, 50.560034574107654 ], [ 4.314587420301636, 50.559988885456981 ], [ 4.303285012534187, 50.559337394542204 ], [ 4.301749446539742, 50.559301464238821 ], [ 4.297279999820889, 50.558523070415056 ], [ 4.286719902716635, 50.557047681044125 ], [ 4.276055880834924, 50.555916688506343 ], [ 4.265315520708586, 50.5551330181043 ], [ 4.254526601260212, 50.554698696673178 ], [ 4.243717023768309, 50.554614847471882 ], [ 4.232914741558151, 50.554881687351923 ], [ 4.222147689575618, 50.555498526210862 ], [ 4.222012018206391, 50.555508523003148 ], [ 4.21025206205764, 50.556588261442208 ], [ 4.198605038410322, 50.558085465355205 ], [ 4.187107346681938, 50.559995456872279 ], [ 4.183979219859693, 50.560575061765427 ], [ 4.18399621814765, 50.560612288842293 ], [ 4.179725525648031, 50.561385866691566 ], [ 4.17848133643257, 50.5616335015361 ], [ 4.168535548469294, 50.563786368314176 ], [ 4.167819193534295, 50.563954127664857 ], [ 4.156251390751368, 50.566911335660052 ], [ 4.14497528797216, 50.570295889446228 ], [ 4.144373096562551, 50.570490590269046 ], [ 4.143567572463215, 50.57075958929596 ], [ 4.140318504153909, 50.569836970878981 ], [ 4.12981799990702, 50.567270815445724 ], [ 4.119119394665149, 50.565062410594926 ], [ 4.108252655313009, 50.563217937306646 ], [ 4.097248207621722, 50.561742557316421 ], [ 4.086136853029593, 50.560640399026653 ], [ 4.074949684505252, 50.559914546242922 ], [ 4.063718001699868, 50.55956702976323 ], [ 4.056298464751812, 50.559588128583513 ], [ 4.053103847195977, 50.558895802670747 ], [ 4.041652154814773, 50.556862238578688 ], [ 4.041247964917973, 50.556798174496663 ], [ 4.027845720914087, 50.554964412567955 ], [ 4.025819701321613, 50.554730497914989 ], [ 4.014008175585602, 50.55358437077134 ], [ 4.002114375319549, 50.552863426405011 ], [ 3.990175875210865, 50.552569942428789 ], [ 3.97823038752148, 50.552704845990881 ], [ 3.976967461218202, 50.552741772134645 ], [ 3.964254909357294, 50.553357575670944 ], [ 3.956514419893733, 50.554032360854258 ], [ 3.954053776507913, 50.554196366257187 ], [ 3.950775254730887, 50.554192972395434 ], [ 3.950041673999015, 50.554204621253575 ], [ 3.942261898090969, 50.55447790725956 ], [ 3.939645350131229, 50.554430381956344 ], [ 3.928175935185495, 50.554617557455856 ], [ 3.928132061257701, 50.55461979104377 ], [ 3.92402674235221, 50.554640318325198 ], [ 3.912794187076406, 50.555076759526649 ], [ 3.901613572537446, 50.555891806716168 ], [ 3.890800003947897, 50.557052725131726 ], [ 3.884446605692653, 50.55747667690612 ], [ 3.873404519536082, 50.558590684469898 ], [ 3.862469510301189, 50.560073459092116 ], [ 3.851671833644192, 50.561920899356011 ], [ 3.84104137487885, 50.564127894629408 ], [ 3.830607568170531, 50.566688338854028 ], [ 3.820399316822059, 50.569595147028949 ], [ 3.810444914847579, 50.572840274348565 ], [ 3.800771970029093, 50.576414737948319 ], [ 3.79140732864855, 50.580308641205214 ], [ 3.782377002086133, 50.584511200533584 ], [ 3.779877074863053, 50.585740132867556 ], [ 3.771478111150409, 50.590090661863627 ], [ 3.763437768080882, 50.594708168696428 ], [ 3.755777029963079, 50.599580663506948 ], [ 3.748515913784339, 50.604695490559585 ], [ 3.747104805054976, 50.60579767397234 ], [ 3.739008855029275, 50.60292794277138 ], [ 3.729206195596636, 50.599862096797459 ], [ 3.719169513758593, 50.597120961579428 ], [ 3.708925308796729, 50.594711764500978 ], [ 3.698500613964475, 50.592640856717182 ], [ 3.687922926640396, 50.590913696812542 ], [ 3.679847126439451, 50.589873375027032 ], [ 3.675132814050953, 50.58915062929259 ], [ 3.663749193704832, 50.587818528316369 ], [ 3.663373757460873, 50.587781294310687 ], [ 3.652418489046875, 50.586879829349556 ], [ 3.641404591051604, 50.586342141939959 ], [ 3.630361763372567, 50.5861696820578 ], [ 3.61931978190609, 50.586362914764265 ], [ 3.608308420325787, 50.586921318983777 ], [ 3.597357371866251, 50.587843388873161 ], [ 3.586496171295327, 50.589126637779152 ], [ 3.575754117258203, 50.590767604774705 ], [ 3.565160195176074, 50.592761863758767 ], [ 3.564525033417052, 50.592892951022108 ], [ 3.56215135249157, 50.593421646193001 ], [ 3.557758589185814, 50.59346100019529 ], [ 3.557712578142619, 50.593462443833538 ], [ 3.546892725381906, 50.593978498203278 ], [ 3.536128216325261, 50.594845504463365 ], [ 3.525447052285436, 50.596061207410223 ], [ 3.514877023320074, 50.597622444624548 ], [ 3.504445637703674, 50.599525154490856 ], [ 3.499166994169181, 50.600676724356774 ], [ 3.489020204009716, 50.602185483987512 ], [ 3.487858978312005, 50.601603221798939 ], [ 3.478839797424936, 50.597546291445745 ], [ 3.469502219959586, 50.593793255276765 ], [ 3.459871507013747, 50.590354237965663 ], [ 3.449973692818168, 50.587238514952638 ], [ 3.439835515449073, 50.584454487984488 ], [ 3.429484345862066, 50.582009662977235 ], [ 3.418948115422098, 50.579910630254233 ], [ 3.408255242105958, 50.578163047206218 ], [ 3.397434555555374, 50.576771623414842 ], [ 3.386515221160123, 50.57574010827468 ], [ 3.375526663351613, 50.575071281142634 ], [ 3.364498488288313, 50.574766944038331 ], [ 3.353460406115079, 50.574827916912177 ], [ 3.342442152978806, 50.57525403549274 ], [ 3.331473412983197, 50.576044151717866 ], [ 3.320583740265426, 50.577196136749095 ], [ 3.309802481377374, 50.578706886561882 ], [ 3.299158698153807, 50.580572330098832 ], [ 3.288681091249294, 50.582787439966488 ], [ 3.287526445291747, 50.583052942120851 ], [ 3.278908683979521, 50.585170419374954 ], [ 3.277350892490265, 50.585578160307733 ], [ 3.267366034010655, 50.588384515248606 ], [ 3.257620232472612, 50.591513755484122 ], [ 3.255270406799647, 50.592367423901955 ], [ 3.25512598317659, 50.59240242368913 ], [ 3.24449221516969, 50.595414117024291 ], [ 3.234132882912624, 50.598792060348522 ], [ 3.224079078449722, 50.602526134693171 ], [ 3.222847042696277, 50.603012975842617 ], [ 3.213929168738646, 50.606737290732596 ], [ 3.21002525732026, 50.608552431881812 ], [ 3.206649712162363, 50.609894923505308 ], [ 3.197594147451241, 50.613927947085998 ], [ 3.188879780277345, 50.61825523513027 ], [ 3.18496490933367, 50.620416862511455 ], [ 3.174189737647919, 50.620470811664518 ], [ 3.16316452320579, 50.620890993782126 ], [ 3.152188356753218, 50.621674916032511 ], [ 3.141290789434511, 50.62282046789359 ], [ 3.130501166203882, 50.624324565055012 ], [ 3.123306165956357, 50.625580019882506 ], [ 3.121332383930067, 50.625897228772033 ], [ 3.120057997983355, 50.626146625097348 ], [ 3.119848548760653, 50.626183157513161 ], [ 3.119549958814629, 50.626246043345539 ], [ 3.110996144108838, 50.627919545253938 ], [ 3.100834495129961, 50.630273609459238 ], [ 3.098599169654205, 50.630832766509926 ], [ 3.08777090124089, 50.633763805783339 ], [ 3.077213554746846, 50.637071467020014 ], [ 3.075699306673388, 50.637614134179302 ], [ 3.069061809891474, 50.636781794492592 ], [ 3.058222475358184, 50.635788193685045 ], [ 3.047317267485545, 50.635150808949653 ], [ 3.04279385254473, 50.635035398227913 ], [ 3.036859277163492, 50.629856124784858 ], [ 3.036470751741643, 50.629536291610279 ], [ 3.034907799487578, 50.628323796581817 ], [ 3.034629233006074, 50.628078116600022 ], [ 3.027643822714441, 50.622553432912284 ], [ 3.020213251185289, 50.617269461149462 ], [ 3.012358087250133, 50.6122407252996 ], [ 3.010270057604902, 50.610972243556226 ], [ 3.002607057753494, 50.606538732562328 ], [ 2.994614230088988, 50.602348216880678 ], [ 2.986310624654005, 50.598410640218326 ], [ 2.977716013816187, 50.594735343695532 ], [ 2.96885084562776, 50.591331044139828 ], [ 2.959736195753585, 50.588205813850244 ], [ 2.959309348407796, 50.588067887189105 ], [ 2.956375305007211, 50.587137853533569 ], [ 2.956186274513195, 50.587079088294537 ], [ 2.945886142718189, 50.584090630770035 ], [ 2.935351166256481, 50.581455809498479 ], [ 2.924611229049578, 50.579182089945206 ], [ 2.913696781589936, 50.577275913442065 ], [ 2.902638756484488, 50.575742679381392 ], [ 2.891468482803257, 50.574586730298314 ], [ 2.880217599447514, 50.573811339878269 ], [ 2.868917967753081, 50.573418703919423 ], [ 2.857601583545275, 50.57340993427222 ], [ 2.846300488862601, 50.573785055771147 ], [ 2.835046683566663, 50.574543006166195 ], [ 2.82387203705591, 50.575681639054174 ], [ 2.812808200300711, 50.577197729802791 ], [ 2.801886518416869, 50.579086984452516 ], [ 2.791137943994121, 50.581344051574852 ], [ 2.788608924877674, 50.581972159793466 ], [ 2.785705700577177, 50.582218098721015 ], [ 2.774561468967895, 50.583551227952405 ], [ 2.763544511452923, 50.58526112938091 ], [ 2.763376292131039, 50.58529028720298 ], [ 2.752282983172644, 50.587421615682175 ], [ 2.743253079657892, 50.589504820272616 ], [ 2.742513711522109, 50.58965129116843 ], [ 2.732644730700534, 50.591953390555545 ], [ 2.722966232670535, 50.594563460910344 ], [ 2.713501890605692, 50.597475126622335 ], [ 2.704274866846142, 50.600681274140975 ], [ 2.695307757223939, 50.604174068955125 ], [ 2.687000770765231, 50.607780780566159 ], [ 2.680087437053735, 50.610288992763188 ], [ 2.671072108096963, 50.613954212086554 ], [ 2.662357513314272, 50.6179035784996 ], [ 2.653965783647208, 50.622127097134992 ], [ 2.645918249765613, 50.626614076568515 ], [ 2.638235388269069, 50.631353155341458 ], [ 2.630936769833011, 50.63633233017606 ], [ 2.624041009428089, 50.641538985820141 ], [ 2.623493910709359, 50.641973824703108 ], [ 2.616860397614649, 50.647534431095558 ], [ 2.610686715070871, 50.653305473835204 ], [ 2.604989492699677, 50.659271567355475 ], [ 2.599784107494476, 50.665416800217592 ], [ 2.595084641416272, 50.671724776982778 ], [ 2.591299408073899, 50.677568110285996 ], [ 2.590082514067398, 50.678661550895207 ], [ 2.586495690710993, 50.681521992313009 ], [ 2.57997207222096, 50.682517675960291 ], [ 2.569295850141593, 50.684527830470977 ], [ 2.558799236165147, 50.686889982288562 ], [ 2.548510915841544, 50.689597681970604 ], [ 2.538459019734341, 50.69264353543803 ], [ 2.528671048027942, 50.696019223690158 ], [ 2.528548682760238, 50.696064095501406 ], [ 2.519398520132507, 50.699617537161856 ], [ 2.510541136652587, 50.703459229900112 ], [ 2.50199904839835, 50.70757943923973 ], [ 2.493793989246815, 50.711967722356221 ], [ 2.485946856067364, 50.716612954006159 ], [ 2.478477655819285, 50.721503354180683 ], [ 2.471405454684093, 50.726626517420243 ], [ 2.464748329360253, 50.731969443723436 ], [ 2.458523320644715, 50.737518570978516 ], [ 2.452746389422298, 50.743259808842332 ], [ 2.447432375180113, 50.749178573987756 ], [ 2.445963053636361, 50.751025887093014 ], [ 2.445202463236952, 50.751872323789087 ], [ 2.442642576720582, 50.755199971434585 ], [ 2.442594957160132, 50.755259826636539 ], [ 2.442544233022193, 50.755327799824038 ], [ 2.439224685804371, 50.759642131710407 ], [ 2.439067110601535, 50.759864740512924 ], [ 2.432016018075811, 50.765208064856957 ], [ 2.425055016122784, 50.771108615424481 ], [ 2.418610995789898, 50.777241128258041 ], [ 2.412703315976955, 50.783587374771926 ], [ 2.407349763110354, 50.79012848366299 ], [ 2.40256649634656, 50.796844996296471 ], [ 2.402509999522221, 50.796930468910041 ], [ 2.398725345145601, 50.803072594338047 ], [ 2.395418100400366, 50.80932451381706 ], [ 2.392596343598598, 50.815671318267981 ], [ 2.392532802985085, 50.815828879541847 ], [ 2.389474526379102, 50.824626653624271 ], [ 2.389178234812291, 50.825638678471869 ], [ 2.387880185255913, 50.830582591229373 ], [ 2.387848781078168, 50.830717653400484 ], [ 2.386595044072044, 50.837191777713592 ], [ 2.385836909108482, 50.84369670343402 ], [ 2.385576354947644, 50.850217219465989 ], [ 2.385599807580864, 50.8508602918821 ], [ 2.385597595025671, 50.850894279727029 ], [ 2.385799417194717, 50.858662857809207 ], [ 2.386708020653193, 50.866411160653833 ], [ 2.386726437545929, 50.866524023922963 ], [ 2.387792121937398, 50.871967803329262 ], [ 2.38790106859662, 50.872444561883903 ], [ 2.38848309674902, 50.874560931778987 ], [ 2.386931520964975, 50.877383319772107 ], [ 2.383937195578906, 50.883855201208704 ], [ 2.381457335694889, 50.890413623815313 ], [ 2.379498347706964, 50.897042217270041 ], [ 2.379404615800296, 50.897410027745011 ], [ 2.377831554839506, 50.904918851729917 ], [ 2.376927394726962, 50.912471657488702 ], [ 2.376695309894905, 50.920044627828375 ], [ 2.377136357760868, 50.927613870596439 ], [ 2.378249471293544, 50.935155494015767 ], [ 2.380031458281018, 50.94264568216223 ], [ 2.380229994472096, 50.943345679827196 ], [ 2.380934332174329, 50.945499140016921 ], [ 2.380497566359802, 50.946048433302224 ], [ 2.375981548420681, 50.952562157787703 ], [ 2.372014265300666, 50.959217060864574 ], [ 2.36860695320749, 50.965994688976245 ], [ 2.367184876022395, 50.969443621015053 ], [ 2.366935223732519, 50.969931041575201 ], [ 2.364565194350485, 50.975308387785866 ], [ 2.363959244164759, 50.976802047476937 ], [ 2.363973751814634, 50.976804393281569 ], [ 2.361311539953209, 50.984075663781219 ], [ 2.35921891782159, 50.99182199660531 ], [ 2.357844287473126, 50.999632076001767 ], [ 2.357832113230426, 50.999726144248882 ], [ 2.357213358680229, 51.006780660018343 ], [ 2.357181056910938, 51.01384592468483 ], [ 2.35731687409735, 51.015574529097549 ], [ 2.356410777335123, 51.018410416411974 ], [ 2.356156650052483, 51.019218453341338 ], [ 2.354859151408742, 51.0234106553199 ], [ 2.354018401228559, 51.025980275405196 ], [ 2.353318352420944, 51.028214836036042 ], [ 2.352752475269315, 51.030104771108022 ] ] ] } }
]
}
